[{"OBJECT_NAME":"STARLINK-6039","OBJECT_ID":"2023-058C","EPOCH":"2026-03-09T22:08:43.166976","MEAN_MOTION":15.04936757,"ECCENTRICITY":0.000205,"INCLINATION":97.6035,"RA_OF_ASC_NODE":70.4131,"ARG_OF_PERICENTER":83.2541,"MEAN_ANOMALY":276.8918,"EPHEMERIS_TYPE":0,"CLASSIFICATION_TYPE":"U","NORAD_CAT_ID":56319,"ELEMENT_SET_NO":999,"REV_AT_EPOCH":15781,"BSTAR":0.00092995507,"MEAN_MOTION_DOT":0.00013129,"MEAN_MOTION_DDOT":0},{"OBJECT_NAME":"CZ-6A DEB","OBJECT_ID":"2022-151AAA","EPOCH":"2026-03-09T04:57:45.021312","MEAN_MOTION":15.12096834,"ECCENTRICITY":0.00549442,"INCLINATION":98.6194,"RA_OF_ASC_NODE":161.6622,"ARG_OF_PERICENTER":147.3471,"MEAN_ANOMALY":213.1173,"EPHEMERIS_TYPE":0,"CLASSIFICATION_TYPE":"U","NORAD_CAT_ID":55878,"ELEMENT_SET_NO":999,"REV_AT_EPOCH":16515,"BSTAR":0.0054624845,"MEAN_MOTION_DOT":0.00098665,"MEAN_MOTION_DDOT":0}]
